[{"OBJECT_NAME":"FLOCK 4G-17","OBJECT_ID":"2025-009CA","EPOCH":"2026-03-09T22:51:51.984864","MEAN_MOTION":15.27385439,"ECCENTRICITY":0.00036407,"INCLINATION":97.3966,"RA_OF_ASC_NODE":151.0229,"ARG_OF_PERICENTER":339.6132,"MEAN_ANOMALY":20.4962,"EPHEMERIS_TYPE":0,"CLASSIFICATION_TYPE":"U","NORAD_CAT_ID":62681,"ELEMENT_SET_NO":999,"REV_AT_EPOCH":12139,"BSTAR":0.00053710713,"MEAN_MOTION_DOT":0.00014342,"MEAN_MOTION_DDOT":0},{"OBJECT_NAME":"STARLINK-36496","OBJECT_ID":"2026-002AA","EPOCH":"2026-03-09T01:33:51.489792","MEAN_MOTION":15.27564785,"ECCENTRICITY":0.00017394,"INCLINATION":43.0006,"RA_OF_ASC_NODE":328.7667,"ARG_OF_PERICENTER":272.1531,"MEAN_ANOMALY":87.9121,"EPHEMERIS_TYPE":0,"CLASSIFICATION_TYPE":"U","NORAD_CAT_ID":67329,"ELEMENT_SET_NO":999,"REV_AT_EPOCH":1096,"BSTAR":0.0013789403,"MEAN_MOTION_DOT":0.00037861,"MEAN_MOTION_DDOT":0}]
